start=new Date('2022-05-01T00:00:00.000Z').valueOf();
sats=[{"RCS_SIZE":"LARGE","BSTAR":"0.00102120000000","TLE_LINE2":"2 45180  53.0527 251.1173 0000503 212.5036 147.5923 15.08337545122488","SEMIMAJOR_AXIS":"6919.417","MEAN_MOTION_DOT":"0.00015782","MEAN_MOTION":"15.08337545","TIME_SYSTEM":"UTC","DECAY_DATE":null,"PERIAPSIS":"540.934","OBJECT_ID":"2020-012C","APOAPSIS":"541.630","NORAD_CAT_ID":"45180","RA_OF_ASC_NODE":"251.1173","GP_ID":"202389729","ELEMENT_SET_NO":"999","PERIOD":"95.469","TLE_LINE1":"1 45180U 20012C   22120.75957344  .00015782  00000-0  10212-2 0  9995","ARG_OF_PERICENTER":"212.5036","CLASSIFICATION_TYPE":"U","COUNTRY_CODE":"US","MEAN_ELEMENT_THEORY":"SGP4","OBJECT_TYPE":"PAYLOAD","MEAN_ANOMALY":"147.5923","EPOCH":"2022-04-30T18:13:47.145216","REV_AT_EPOCH":"12248","REF_FRAME":"TEME","SITE":"AFETR","OBJECT_NAME":"STARLINK-1192","ECCENTRICITY":"0.00005030","EPHEMERIS_TYPE":"0","CENTER_NAME":"EARTH","INCLINATION":"53.0527","MEAN_MOTION_DDOT":"0.0000000000000","FILE":"3423346","LAUNCH_DATE":"2020-02-17"},{"TLE_LINE2":"2 45181  53.0563 251.4019 0001600  52.7080 307.4054 15.06398769122488","BSTAR":"0.00056209000000","RCS_SIZE":"LARGE","SEMIMAJOR_AXIS":"6925.352","MEAN_MOTION_DOT":"0.00008100","PERIAPSIS":"546.109","DECAY_DATE":null,"TIME_SYSTEM":"UTC","MEAN_MOTION":"15.06398769","OBJECT_ID":"2020-012D","NORAD_CAT_ID":"45181","APOAPSIS":"548.325","ELEMENT_SET_NO":"999","PERIOD":"95.592","GP_ID":"202389479","RA_OF_ASC_NODE":"251.4019","TLE_LINE1":"1 45181U 20012D   22120.79333912  .00008100  00000-0  56209-3 0  9992","CLASSIFICATION_TYPE":"U","ARG_OF_PERICENTER":"52.7080","MEAN_ANOMALY":"307.4054","OBJECT_TYPE":"PAYLOAD","MEAN_ELEMENT_THEORY":"SGP4","COUNTRY_CODE":"US","REV_AT_EPOCH":"12248","EPOCH":"2022-04-30T19:02:24.499968","SITE":"AFETR","REF_FRAME":"TEME","OBJECT_NAME":"STARLINK-1200","ECCENTRICITY":"0.00016000","INCLINATION":"53.0563","CENTER_NAME":"EARTH","EPHEMERIS_TYPE":"0","LAUNCH_DATE":"2020-02-17","FILE":"3423346","MEAN_MOTION_DDOT":"0.0000000000000"},{"MEAN_MOTION":"15.06381518","TIME_SYSTEM":"UTC","DECAY_DATE":null,"PERIAPSIS":"546.222","MEAN_MOTION_DOT":"-0.00002887","SEMIMAJOR_AXIS":"6925.405","RCS_SIZE":"LARGE","BSTAR":"-0.00017511000000","TLE_LINE2":"2 45182  53.0526 231.3169 0001514  54.5143 305.5987 15.06381518122618","TLE_LINE1":"1 45182U 20012E   22120.81362648 -.00002887  00000-0 -17511-3 0  9995","RA_OF_ASC_NODE":"231.3169","GP_ID":"202388227","ELEMENT_SET_NO":"999","PERIOD":"95.593","APOAPSIS":"548.319","NORAD_CAT_ID":"45182","OBJECT_ID":"2020-012E","EPOCH":"2022-04-30T19:31:37.327872","REV_AT_EPOCH":"12261","COUNTRY_CODE":"US","OBJECT_TYPE":"PAYLOAD","MEAN_ANOMALY":"305.5987","MEAN_ELEMENT_THEORY":"SGP4","CLASSIFICATION_TYPE":"U","ARG_OF_PERICENTER":"54.5143","MEAN_MOTION_DDOT":"0.0000000000000","FILE":"3423346","LAUNCH_DATE":"2020-02-17","EPHEMERIS_TYPE":"0","CENTER_NAME":"EARTH","INCLINATION":"53.0526","ECCENTRICITY":"0.00015140","OBJECT_NAME":"STARLINK-1201","REF_FRAME":"TEME","SITE":"AFETR"},{"EPOCH":"2022-04-30T19:55:29.699904","REV_AT_EPOCH":"12249","ARG_OF_PERICENTER":"58.1289","CLASSIFICATION_TYPE":"U","COUNTRY_CODE":"US","OBJECT_TYPE":"PAYLOAD","MEAN_ELEMENT_THEORY":"SGP4","MEAN_ANOMALY":"301.9848","EPHEMERIS_TYPE":"0","CENTER_NAME":"EARTH","INCLINATION":"53.0556","MEAN_MOTION_DDOT":"0.0000000000000","FILE":"3423346","LAUNCH_DATE":"2020-02-17","REF_FRAME":"TEME","SITE":"AFETR","ECCENTRICITY":"0.00015240","OBJECT_NAME":"STARLINK-1202","MEAN_MOTION_DOT":"-0.00001043","SEMIMAJOR_AXIS":"6925.333","MEAN_MOTION":"15.06405167","DECAY_DATE":null,"TIME_SYSTEM":"UTC","PERIAPSIS":"546.142","RCS_SIZE":"LARGE","TLE_LINE2":"2 45183  53.0556 251.2364 0001524  58.1289 301.9848 15.06405167122491","BSTAR":"-0.00005114500000","RA_OF_ASC_NODE":"251.2364","GP_ID":"202388978","ELEMENT_SET_NO":"999","PERIOD":"95.592","TLE_LINE1":"1 45183U 20012F   22120.83020486 -.00001043  00000-0 -51145-4 0  9994","OBJECT_ID":"2020-012F","APOAPSIS":"548.253","NORAD_CAT_ID":"45183"},{"OBJECT_NAME":"STARLINK-1205","ECCENTRICITY":"0.00019650","REF_FRAME":"TEME","SITE":"AFETR","MEAN_MOTION_DDOT":"0.0000000000000","FILE":"3423346","LAUNCH_DATE":"2020-02-17","INCLINATION":"53.0556","CENTER_NAME":"EARTH","EPHEMERIS_TYPE":"0","MEAN_ANOMALY":"302.1753","OBJECT_TYPE":"PAYLOAD","MEAN_ELEMENT_THEORY":"SGP4","COUNTRY_CODE":"US","ARG_OF_PERICENTER":"57.9426","CLASSIFICATION_TYPE":"U","EPOCH":"2022-04-30T19:42:13.809024","REV_AT_EPOCH":"12180","APOAPSIS":"548.598","NORAD_CAT_ID":"45184","OBJECT_ID":"2020-012G","TLE_LINE1":"1 45184U 20012G   22120.82099316  .00009824  00000-0  67766-3 0  9990","GP_ID":"202389229","RA_OF_ASC_NODE":"231.2748","ELEMENT_SET_NO":"999","PERIOD":"95.593","BSTAR":"0.00067766000000","TLE_LINE2":"2 45184  53.0556 231.2748 0001965  57.9426 302.1753 15.06392283121801","RCS_SIZE":"LARGE","DECAY_DATE":null,"TIME_SYSTEM":"UTC","MEAN_MOTION":"15.06392283","PERIAPSIS":"545.876","MEAN_MOTION_DOT":"0.00009824","SEMIMAJOR_AXIS":"6925.372"},{"SITE":"AFETR","REF_FRAME":"TEME","OBJECT_NAME":"STARLINK-1216","ECCENTRICITY":"0.00014990","INCLINATION":"53.0552","EPHEMERIS_TYPE":"0","CENTER_NAME":"EARTH","FILE":"3423107","LAUNCH_DATE":"2020-02-17","MEAN_MOTION_DDOT":"0.0000000000000","CLASSIFICATION_TYPE":"U","ARG_OF_PERICENTER":"72.6833","OBJECT_TYPE":"PAYLOAD","MEAN_ANOMALY":"287.4320","MEAN_ELEMENT_THEORY":"SGP4","COUNTRY_CODE":"US","REV_AT_EPOCH":"12183","EPOCH":"2022-04-30T18:09:21.589632","OBJECT_ID":"2020-012H","NORAD_CAT_ID":"45185","APOAPSIS":"548.292","PERIOD":"95.593","ELEMENT_SET_NO":"999","GP_ID":"202364249","RA_OF_ASC_NODE":"251.5649","TLE_LINE1":"1 45185U 20012H   22120.75649988 -.00001409  00000-0 -75751-4 0  9996","BSTAR":"-0.00007575100000","TLE_LINE2":"2 45185  53.0552 251.5649 0001499  72.6833 287.4320 15.06386934121835","RCS_SIZE":"LARGE","MEAN_MOTION_DOT":"-0.00001409","SEMIMAJOR_AXIS":"6925.389","PERIAPSIS":"546.215","TIME_SYSTEM":"UTC","DECAY_DATE":null,"MEAN_MOTION":"15.06386934"},{"OBJECT_TYPE":"PAYLOAD","MEAN_ANOMALY":"300.2661","MEAN_ELEMENT_THEORY":"SGP4","COUNTRY_CODE":"US","CLASSIFICATION_TYPE":"U","ARG_OF_PERICENTER":"59.8509","EPOCH":"2022-04-30T18:30:35.291520","REV_AT_EPOCH":"12242","OBJECT_NAME":"STARLINK-1224","ECCENTRICITY":"0.00018270","REF_FRAME":"TEME","SITE":"AFETR","MEAN_MOTION_DDOT":"0.0000000000000","FILE":"3423346","LAUNCH_DATE":"2020-02-17","INCLINATION":"53.0558","CENTER_NAME":"EARTH","EPHEMERIS_TYPE":"0","TLE_LINE2":"2 45186  53.0558 251.5000 0001827  59.8509 300.2661 15.06390379122421","BSTAR":"-0.00013866000000","RCS_SIZE":"LARGE","TIME_SYSTEM":"UTC","DECAY_DATE":null,"MEAN_MOTION":"15.06390379","PERIAPSIS":"545.978","SEMIMAJOR_AXIS":"6925.378","MEAN_MOTION_DOT":"-0.00002346","APOAPSIS":"548.508","NORAD_CAT_ID":"45186","OBJECT_ID":"2020-012J","TLE_LINE1":"1 45186U 20012J   22120.77124180 -.00002346  00000-0 -13866-3 0  9990","GP_ID":"202388728","RA_OF_ASC_NODE":"251.5000","ELEMENT_SET_NO":"999","PERIOD":"95.593"},{"MEAN_MOTION_DOT":"-0.00000714","SEMIMAJOR_AXIS":"6925.373","PERIAPSIS":"546.000","TIME_SYSTEM":"UTC","DECAY_DATE":null,"MEAN_MOTION":"15.06391916","TLE_LINE2":"2 45187  53.0567 251.7819 0001788  51.9752 308.1399 15.06391916122468","BSTAR":"-0.00002903900000","RCS_SIZE":"LARGE","PERIOD":"95.593","ELEMENT_SET_NO":"999","GP_ID":"202388478","RA_OF_ASC_NODE":"251.7819","TLE_LINE1":"1 45187U 20012K   22120.70857960 -.00000714  00000-0 -29039-4 0  9990","OBJECT_ID":"2020-012K","NORAD_CAT_ID":"45187","APOAPSIS":"548.477","REV_AT_EPOCH":"12246","EPOCH":"2022-04-30T17:00:21.277440","ARG_OF_PERICENTER":"51.9752","CLASSIFICATION_TYPE":"U","OBJECT_TYPE":"PAYLOAD","MEAN_ANOMALY":"308.1399","MEAN_ELEMENT_THEORY":"SGP4","COUNTRY_CODE":"US","INCLINATION":"53.0567","EPHEMERIS_TYPE":"0","CENTER_NAME":"EARTH","FILE":"3423346","LAUNCH_DATE":"2020-02-17","MEAN_MOTION_DDOT":"0.0000000000000","SITE":"AFETR","REF_FRAME":"TEME","OBJECT_NAME":"STARLINK-1225","ECCENTRICITY":"0.00017880"},{"PERIAPSIS":"546.056","MEAN_MOTION":"15.06394371","TIME_SYSTEM":"UTC","DECAY_DATE":null,"MEAN_MOTION_DOT":"-0.00002650","SEMIMAJOR_AXIS":"6925.366","RCS_SIZE":"LARGE","TLE_LINE2":"2 45188  53.0544 211.6590 0001696  52.3155 307.7988 15.06394371122989","BSTAR":"-0.00015907000000","TLE_LINE1":"1 45188U 20012L   22120.73806019 -.00002650  00000-0 -15907-3 0  9992","ELEMENT_SET_NO":"999","PERIOD":"95.592","RA_OF_ASC_NODE":"211.6590","GP_ID":"202389730","NORAD_CAT_ID":"45188","APOAPSIS":"548.405","OBJECT_ID":"2020-012L","REV_AT_EPOCH":"12298","EPOCH":"2022-04-30T17:42:48.400416","COUNTRY_CODE":"US","OBJECT_TYPE":"PAYLOAD","MEAN_ANOMALY":"307.7988","MEAN_ELEMENT_THEORY":"SGP4","ARG_OF_PERICENTER":"52.3155","CLASSIFICATION_TYPE":"U","FILE":"3423346","LAUNCH_DATE":"2020-02-17","MEAN_MOTION_DDOT":"0.0000000000000","CENTER_NAME":"EARTH","EPHEMERIS_TYPE":"0","INCLINATION":"53.0544","ECCENTRICITY":"0.00016960","OBJECT_NAME":"STARLINK-1228","SITE":"AFETR","REF_FRAME":"TEME"},{"MEAN_MOTION":"15.06388277","TIME_SYSTEM":"UTC","DECAY_DATE":null,"PERIAPSIS":"546.084","MEAN_MOTION_DOT":"-0.00000654","SEMIMAJOR_AXIS":"6925.384","RCS_SIZE":"LARGE","TLE_LINE2":"2 45189  53.0547 251.4701 0001683  56.9707 303.1443 15.06388277119708","BSTAR":"-0.00002501700000","TLE_LINE1":"1 45189U 20012M   22120.77860962 -.00000654  00000-0 -25017-4 0  9990","RA_OF_ASC_NODE":"251.4701","GP_ID":"202389480","ELEMENT_SET_NO":"999","PERIOD":"95.593","APOAPSIS":"548.415","NORAD_CAT_ID":"45189","OBJECT_ID":"2020-012M","EPOCH":"2022-04-30T18:41:11.871168","REV_AT_EPOCH":"11970","COUNTRY_CODE":"US","OBJECT_TYPE":"PAYLOAD","MEAN_ANOMALY":"303.1443","MEAN_ELEMENT_THEORY":"SGP4","ARG_OF_PERICENTER":"56.9707","CLASSIFICATION_TYPE":"U","MEAN_MOTION_DDOT":"0.0000000000000","FILE":"3423346","LAUNCH_DATE":"2020-02-17","CENTER_NAME":"EARTH","EPHEMERIS_TYPE":"0","INCLINATION":"53.0547","ECCENTRICITY":"0.00016830","OBJECT_NAME":"STARLINK-1230","REF_FRAME":"TEME","SITE":"AFETR"}];
